[{"OBJECT_NAME":"STARLINK-5266","OBJECT_ID":"2023-010X","EPOCH":"2026-03-09T22:13:01.934112","MEAN_MOTION":14.98328896,"ECCENTRICITY":0.00029721,"INCLINATION":70.0019,"RA_OF_ASC_NODE":23.8984,"ARG_OF_PERICENTER":268.2636,"MEAN_ANOMALY":91.8183,"EPHEMERIS_TYPE":0,"CLASSIFICATION_TYPE":"U","NORAD_CAT_ID":55290,"ELEMENT_SET_NO":999,"REV_AT_EPOCH":17330,"BSTAR":-1.0130145e-5,"MEAN_MOTION_DOT":-2.14e-6,"MEAN_MOTION_DDOT":0},{"OBJECT_NAME":"BRO-15","OBJECT_ID":"2024-149CP","EPOCH":"2026-03-09T18:52:33.918816","MEAN_MOTION":14.95892184,"ECCENTRICITY":0.00093198,"INCLINATION":97.6864,"RA_OF_ASC_NODE":146.0377,"ARG_OF_PERICENTER":65.4416,"MEAN_ANOMALY":294.7775,"EPHEMERIS_TYPE":0,"CLASSIFICATION_TYPE":"U","NORAD_CAT_ID":60553,"ELEMENT_SET_NO":999,"REV_AT_EPOCH":8514,"BSTAR":7.8021491e-5,"MEAN_MOTION_DOT":8.16e-6,"MEAN_MOTION_DDOT":0}]
